[{"OBJECT_NAME":"STARLINK-6266","OBJECT_ID":"2023-065AR","EPOCH":"2026-03-09T10:04:09.762816","MEAN_MOTION":15.02537405,"ECCENTRICITY":0.00013015,"INCLINATION":43.0026,"RA_OF_ASC_NODE":224.8651,"ARG_OF_PERICENTER":262.1452,"MEAN_ANOMALY":97.9242,"EPHEMERIS_TYPE":0,"CLASSIFICATION_TYPE":"U","NORAD_CAT_ID":56542,"ELEMENT_SET_NO":999,"REV_AT_EPOCH":15643,"BSTAR":-3.174188e-6,"MEAN_MOTION_DOT":-2.46e-6,"MEAN_MOTION_DDOT":0},{"OBJECT_NAME":"COSMOS 921","OBJECT_ID":"1977-055A","EPOCH":"2026-03-09T22:48:25.254720","MEAN_MOTION":14.96601907,"ECCENTRICITY":0.00365313,"INCLINATION":75.8341,"RA_OF_ASC_NODE":6.4444,"ARG_OF_PERICENTER":239.9272,"MEAN_ANOMALY":119.8299,"EPHEMERIS_TYPE":0,"CLASSIFICATION_TYPE":"U","NORAD_CAT_ID":10095,"ELEMENT_SET_NO":999,"REV_AT_EPOCH":63955,"BSTAR":0.00011088241,"MEAN_MOTION_DOT":1.258e-5,"MEAN_MOTION_DDOT":0}]
